[{"OBJECT_NAME":"SITRO-AIS 5 (KATYS)","OBJECT_ID":"2023-091L","EPOCH":"2026-03-09T22:36:44.932608","MEAN_MOTION":15.27079182,"ECCENTRICITY":0.00133776,"INCLINATION":97.5176,"RA_OF_ASC_NODE":132.0172,"ARG_OF_PERICENTER":94.5677,"MEAN_ANOMALY":265.709,"EPHEMERIS_TYPE":0,"CLASSIFICATION_TYPE":"U","NORAD_CAT_ID":57176,"ELEMENT_SET_NO":999,"REV_AT_EPOCH":14918,"BSTAR":0.00057530772,"MEAN_MOTION_DOT":0.00015262,"MEAN_MOTION_DDOT":0},{"OBJECT_NAME":"STARLINK-30966","OBJECT_ID":"2023-183T","EPOCH":"2026-03-09T06:50:36.133152","MEAN_MOTION":15.27588736,"ECCENTRICITY":0.00016028,"INCLINATION":43.0015,"RA_OF_ASC_NODE":43.7959,"ARG_OF_PERICENTER":275.5141,"MEAN_ANOMALY":84.5528,"EPHEMERIS_TYPE":0,"CLASSIFICATION_TYPE":"U","NORAD_CAT_ID":58454,"ELEMENT_SET_NO":999,"REV_AT_EPOCH":12667,"BSTAR":6.2946626e-5,"MEAN_MOTION_DOT":1.471e-5,"MEAN_MOTION_DDOT":0}]
